CCSDS_OMM_VERS = 2.0
CREATION_DATE  = 
ORIGINATOR     = 

OBJECT_NAME    = IDEFIX & ARIANE 42P R/B
OBJECT_ID      = 2002-021B
CENTER_NAME    = EARTH
REF_FRAME      = TEME
TIME_SYSTEM    = UTC
MEAN_ELEMENT_THEORY = SGP/SGP4

EPOCH          = 2025-12-20T01:33:40.392576
MEAN_MOTION    = 14.30955181
ECCENTRICITY   = .00128881
INCLINATION    = 98.5796
RA_OF_ASC_NODE = 288.6611
ARG_OF_PERICENTER = 63.9708
MEAN_ANOMALY   = 296.2800

EPHEMERIS_TYPE = 0
CLASSIFICATION_TYPE = U
NORAD_CAT_ID   = 27422
ELEMENT_SET_NO = 999
REV_AT_EPOCH   = 23263
BSTAR          = .91381222E-4
MEAN_MOTION_DOT = .197E-5
MEAN_MOTION_DDOT = 0

CCSDS_OMM_VERS = 2.0
CREATION_DATE  = 
ORIGINATOR     = 

OBJECT_NAME    = AQUA
OBJECT_ID      = 2002-022A
CENTER_NAME    = EARTH
REF_FRAME      = TEME
TIME_SYSTEM    = UTC
MEAN_ELEMENT_THEORY = SGP/SGP4

EPOCH          = 2025-12-19T19:17:33.406368
MEAN_MOTION    = 14.61824191
ECCENTRICITY   = .00013487
INCLINATION    = 98.4046
RA_OF_ASC_NODE = 314.7980
ARG_OF_PERICENTER = 112.3467
MEAN_ANOMALY   = 286.6091

EPHEMERIS_TYPE = 0
CLASSIFICATION_TYPE = U
NORAD_CAT_ID   = 27424
ELEMENT_SET_NO = 999
REV_AT_EPOCH   = 25706
BSTAR          = .15509968E-3
MEAN_MOTION_DOT = .725E-5
MEAN_MOTION_DDOT = 0

CCSDS_OMM_VERS = 2.0
CREATION_DATE  = 
ORIGINATOR     = 

OBJECT_NAME    = CZ-4B R/B
OBJECT_ID      = 2002-024C
CENTER_NAME    = EARTH
REF_FRAME      = TEME
TIME_SYSTEM    = UTC
MEAN_ELEMENT_THEORY = SGP/SGP4

EPOCH          = 2025-12-20T03:14:05.932032
MEAN_MOTION    = 14.14529261
ECCENTRICITY   = .00492365
INCLINATION    = 98.8988
RA_OF_ASC_NODE = 42.8804
ARG_OF_PERICENTER = 248.4938
MEAN_ANOMALY   = 128.7322

EPHEMERIS_TYPE = 0
CLASSIFICATION_TYPE = U
NORAD_CAT_ID   = 27432
ELEMENT_SET_NO = 999
REV_AT_EPOCH   = 21799
BSTAR          = .42490448E-4
MEAN_MOTION_DOT = .37E-6
MEAN_MOTION_DDOT = 0

CCSDS_OMM_VERS = 2.0
CREATION_DATE  = 
ORIGINATOR     = 

OBJECT_NAME    = MIDORI II (ADEOS-II)
OBJECT_ID      = 2002-056A
CENTER_NAME    = EARTH
REF_FRAME      = TEME
TIME_SYSTEM    = UTC
MEAN_ELEMENT_THEORY = SGP/SGP4

EPOCH          = 2025-12-19T10:28:10.303968
MEAN_MOTION    = 14.29209903
ECCENTRICITY   = .0000537
INCLINATION    = 98.7646
RA_OF_ASC_NODE = 306.4279
ARG_OF_PERICENTER = 150.4807
MEAN_ANOMALY   = 209.6405

EPHEMERIS_TYPE = 0
CLASSIFICATION_TYPE = U
NORAD_CAT_ID   = 27597
ELEMENT_SET_NO = 999
REV_AT_EPOCH   = 19883
BSTAR          = .87748E-4
MEAN_MOTION_DOT = .178E-5
MEAN_MOTION_DDOT = 0

CCSDS_OMM_VERS = 2.0
CREATION_DATE  = 
ORIGINATOR     = 

OBJECT_NAME    = H-2A R/B
OBJECT_ID      = 2002-056E
CENTER_NAME    = EARTH
REF_FRAME      = TEME
TIME_SYSTEM    = UTC
MEAN_ELEMENT_THEORY = SGP/SGP4

EPOCH          = 2025-12-20T03:19:29.600256
MEAN_MOTION    = 14.33682017
ECCENTRICITY   = .00711554
INCLINATION    = 98.3076
RA_OF_ASC_NODE = 312.6010
ARG_OF_PERICENTER = 39.4102
MEAN_ANOMALY   = 331.4173

EPHEMERIS_TYPE = 0
CLASSIFICATION_TYPE = U
NORAD_CAT_ID   = 27601
ELEMENT_SET_NO = 999
REV_AT_EPOCH   = 20271
BSTAR          = .10675143E-3
MEAN_MOTION_DOT = .263E-5
MEAN_MOTION_DDOT = 0

CCSDS_OMM_VERS = 2.0
CREATION_DATE  = 
ORIGINATOR     = 

OBJECT_NAME    = CZ-4B R/B
OBJECT_ID      = 2003-049C
CENTER_NAME    = EARTH
REF_FRAME      = TEME
TIME_SYSTEM    = UTC
MEAN_ELEMENT_THEORY = SGP/SGP4

EPOCH          = 2025-12-19T21:15:11.922624
MEAN_MOTION    = 14.54915691
ECCENTRICITY   = .0049284
INCLINATION    = 98.6791
RA_OF_ASC_NODE = 340.7195
ARG_OF_PERICENTER = 114.6636
MEAN_ANOMALY   = 245.9703

EPHEMERIS_TYPE = 0
CLASSIFICATION_TYPE = U
NORAD_CAT_ID   = 28059
ELEMENT_SET_NO = 999
REV_AT_EPOCH   = 17499
BSTAR          = .76746E-4
MEAN_MOTION_DOT = .284E-5
MEAN_MOTION_DDOT = 0

CCSDS_OMM_VERS = 2.0
CREATION_DATE  = 
ORIGINATOR     = 

OBJECT_NAME    = CZ-2C R/B
OBJECT_ID      = 2004-012C
CENTER_NAME    = EARTH
REF_FRAME      = TEME
TIME_SYSTEM    = UTC
MEAN_ELEMENT_THEORY = SGP/SGP4

EPOCH          = 2025-12-20T04:48:28.922400
MEAN_MOTION    = 15.56044012
ECCENTRICITY   = .00165036
INCLINATION    = 97.7411
RA_OF_ASC_NODE = 47.4407
ARG_OF_PERICENTER = 241.2378
MEAN_ANOMALY   = 118.7218

EPHEMERIS_TYPE = 0
CLASSIFICATION_TYPE = U
NORAD_CAT_ID   = 28222
ELEMENT_SET_NO = 999
REV_AT_EPOCH   = 19188
BSTAR          = .40427418E-3
MEAN_MOTION_DOT = .28277E-3
MEAN_MOTION_DDOT = 0

CCSDS_OMM_VERS = 2.0
CREATION_DATE  = 
ORIGINATOR     = 

OBJECT_NAME    = SL-16 R/B
OBJECT_ID      = 2004-021B
CENTER_NAME    = EARTH
REF_FRAME      = TEME
TIME_SYSTEM    = UTC
MEAN_ELEMENT_THEORY = SGP/SGP4

EPOCH          = 2025-12-20T02:48:41.877504
MEAN_MOTION    = 14.14578776
ECCENTRICITY   = .0004904
INCLINATION    = 71.0007
RA_OF_ASC_NODE = 39.4837
ARG_OF_PERICENTER = 187.7562
MEAN_ANOMALY   = 172.3485

EPHEMERIS_TYPE = 0
CLASSIFICATION_TYPE = U
NORAD_CAT_ID   = 28353
ELEMENT_SET_NO = 999
REV_AT_EPOCH   = 11158
BSTAR          = -.12354339E-4
MEAN_MOTION_DOT = -.71E-6
MEAN_MOTION_DDOT = 0

CCSDS_OMM_VERS = 2.0
CREATION_DATE  = 
ORIGINATOR     = 

OBJECT_NAME    = CZ-4B R/B
OBJECT_ID      = 2004-035C
CENTER_NAME    = EARTH
REF_FRAME      = TEME
TIME_SYSTEM    = UTC
MEAN_ELEMENT_THEORY = SGP/SGP4

EPOCH          = 2025-12-20T02:17:06.626112
MEAN_MOTION    = 15.27483145
ECCENTRICITY   = .00315695
INCLINATION    = 97.3593
RA_OF_ASC_NODE = 24.3413
ARG_OF_PERICENTER = 249.9479
MEAN_ANOMALY   = 109.8361

EPHEMERIS_TYPE = 0
CLASSIFICATION_TYPE = U
NORAD_CAT_ID   = 28415
ELEMENT_SET_NO = 999
REV_AT_EPOCH   = 16775
BSTAR          = .21924419E-3
MEAN_MOTION_DOT = .5905E-4
MEAN_MOTION_DDOT = 0

CCSDS_OMM_VERS = 2.0
CREATION_DATE  = 
ORIGINATOR     = 

OBJECT_NAME    = CZ-2C R/B
OBJECT_ID      = 2004-046B
CENTER_NAME    = EARTH
REF_FRAME      = TEME
TIME_SYSTEM    = UTC
MEAN_ELEMENT_THEORY = SGP/SGP4

EPOCH          = 2025-12-20T04:21:00.663552
MEAN_MOTION    = 14.26944594
ECCENTRICITY   = .01401566
INCLINATION    = 98.1995
RA_OF_ASC_NODE = 269.0967
ARG_OF_PERICENTER = 30.4330
MEAN_ANOMALY   = 330.4894

EPHEMERIS_TYPE = 0
CLASSIFICATION_TYPE = U
NORAD_CAT_ID   = 28480
ELEMENT_SET_NO = 999
REV_AT_EPOCH   = 9716
BSTAR          = .74775325E-4
MEAN_MOTION_DOT = .161E-5
MEAN_MOTION_DDOT = 0

CCSDS_OMM_VERS = 2.0
CREATION_DATE  = 
ORIGINATOR     = 

OBJECT_NAME    = ARIANE 5 R/B
OBJECT_ID      = 2004-049H
CENTER_NAME    = EARTH
REF_FRAME      = TEME
TIME_SYSTEM    = UTC
MEAN_ELEMENT_THEORY = SGP/SGP4

EPOCH          = 2025-12-20T01:32:41.356320
MEAN_MOTION    = 14.85028653
ECCENTRICITY   = .00833436
INCLINATION    = 98.2526
RA_OF_ASC_NODE = 154.6085
ARG_OF_PERICENTER = 248.8628
MEAN_ANOMALY   = 110.3663

EPHEMERIS_TYPE = 0
CLASSIFICATION_TYPE = U
NORAD_CAT_ID   = 28499
ELEMENT_SET_NO = 999
REV_AT_EPOCH   = 13397
BSTAR          = .9654342E-4
MEAN_MOTION_DOT = .811E-5
MEAN_MOTION_DDOT = 0

CCSDS_OMM_VERS = 2.0
CREATION_DATE  = 
ORIGINATOR     = 

OBJECT_NAME    = CZ-2D R/B
OBJECT_ID      = 2005-024B
CENTER_NAME    = EARTH
REF_FRAME      = TEME
TIME_SYSTEM    = UTC
MEAN_ELEMENT_THEORY = SGP/SGP4

EPOCH          = 2025-12-20T00:01:34.854240
MEAN_MOTION    = 15.53583971
ECCENTRICITY   = .00043621
INCLINATION    = 97.3621
RA_OF_ASC_NODE = 1.6404
ARG_OF_PERICENTER = 339.6434
MEAN_ANOMALY   = 20.4645

EPHEMERIS_TYPE = 0
CLASSIFICATION_TYPE = U
NORAD_CAT_ID   = 28738
ELEMENT_SET_NO = 999
REV_AT_EPOCH   = 12738
BSTAR          = .34208121E-3
MEAN_MOTION_DOT = .21719E-3
MEAN_MOTION_DDOT = 0

