IDEFIX & ARIANE 42P R/B 
1 27422U 02021B   25354.06505084  .00000197  00000+0  91381-4 0  9991
2 27422  98.5796 288.6611 0012888  63.9708 296.2800 14.30955181232635
AQUA                    
1 27424U 02022A   25353.80385887  .00000725  00000+0  15510-3 0  9998
2 27424  98.4046 314.7980 0001348 112.3467 286.6091 14.61824191257063
CZ-4B R/B               
1 27432U 02024C   25354.13479088  .00000037  00000+0  42490-4 0  9997
2 27432  98.8988  42.8804 0049236 248.4938 128.7322 14.14529261217996
MIDORI II (ADEOS-II)    
1 27597U 02056A   25353.43623037  .00000178  00000+0  87748-4 0  9992
2 27597  98.7646 306.4279 0000537 150.4807 209.6405 14.29209903198837
H-2A R/B                
1 27601U 02056E   25354.13853704  .00000263  00000+0  10675-3 0  9991
2 27601  98.3076 312.6010 0071155  39.4102 331.4173 14.33682017202711
CZ-4B R/B               
1 28059U 03049C   25353.88555466  .00000284  00000+0  76746-4 0  9992
2 28059  98.6791 340.7195 0049284 114.6636 245.9703 14.54915691174994
CZ-2C R/B               
1 28222U 04012C   25354.20033475  .00028277  00000+0  40427-3 0  9991
2 28222  97.7411  47.4407 0016503 241.2378 118.7218 15.56044012191888
SL-16 R/B               
1 28353U 04021B   25354.11715136 -.00000071  00000+0 -12354-4 0  9990
2 28353  71.0007  39.4837 0004904 187.7562 172.3485 14.14578776111581
CZ-4B R/B               
1 28415U 04035C   25354.09521558  .00005905  00000+0  21924-3 0  9995
2 28415  97.3593  24.3413 0031569 249.9479 109.8361 15.27483145167757
CZ-2C R/B               
1 28480U 04046B   25354.18125768  .00000161  00000+0  74775-4 0  9994
2 28480  98.1995 269.0967 0140156  30.4330 330.4894 14.26944594 97166
ARIANE 5 R/B            
1 28499U 04049H   25354.06436755  .00000811  00000+0  96543-4 0  9994
2 28499  98.2526 154.6085 0083343 248.8628 110.3663 14.85028653133979
CZ-2D R/B               
1 28738U 05024B   25354.00109785  .00021719  00000+0  34208-3 0  9997
2 28738  97.3621   1.6404 0004362 339.6434  20.4645 15.53583971127389
